STARLINK-1912           
1 47178U 20088BJ  26068.00714212  .00117861  00000+0  16669-2 0  9997
2 47178  53.0525 284.7515 0008215 157.4332 202.7041 15.55634663292016
KNACKSAT-2              
1 67683U 98067XZ  26068.27683825  .00041312  00000+0  68223-3 0  9997
2 67683  51.6309  73.9008 0009391 184.4289 175.6619 15.51788436  4727
