[{"OBJECT_NAME":"STARLINK-1912","OBJECT_ID":"2020-088BJ","EPOCH":"2026-03-09T00:10:17.079168","MEAN_MOTION":15.55634663,"ECCENTRICITY":0.00082154,"INCLINATION":53.0525,"RA_OF_ASC_NODE":284.7515,"ARG_OF_PERICENTER":157.4332,"MEAN_ANOMALY":202.7041,"EPHEMERIS_TYPE":0,"CLASSIFICATION_TYPE":"U","NORAD_CAT_ID":47178,"ELEMENT_SET_NO":999,"REV_AT_EPOCH":29201,"BSTAR":0.0016669188,"MEAN_MOTION_DOT":0.00117861,"MEAN_MOTION_DDOT":0},{"OBJECT_NAME":"KNACKSAT-2","OBJECT_ID":"1998-067XZ","EPOCH":"2026-03-09T06:38:38.824800","MEAN_MOTION":15.51788436,"ECCENTRICITY":0.00093919,"INCLINATION":51.6309,"RA_OF_ASC_NODE":73.9008,"ARG_OF_PERICENTER":184.4289,"MEAN_ANOMALY":175.6619,"EPHEMERIS_TYPE":0,"CLASSIFICATION_TYPE":"U","NORAD_CAT_ID":67683,"ELEMENT_SET_NO":999,"REV_AT_EPOCH":472,"BSTAR":0.00068223388,"MEAN_MOTION_DOT":0.00041312,"MEAN_MOTION_DDOT":0}]
